[{"OBJECT_NAME":"STARLINK-30310","OBJECT_ID":"2023-131B","EPOCH":"2026-03-09T07:45:15.069312","MEAN_MOTION":15.02528051,"ECCENTRICITY":0.00016235,"INCLINATION":43.0004,"RA_OF_ASC_NODE":173.3794,"ARG_OF_PERICENTER":268.2309,"MEAN_ANOMALY":91.8347,"EPHEMERIS_TYPE":0,"CLASSIFICATION_TYPE":"U","NORAD_CAT_ID":57733,"ELEMENT_SET_NO":999,"REV_AT_EPOCH":13988,"BSTAR":-1.1696686e-5,"MEAN_MOTION_DOT":-3.62e-6,"MEAN_MOTION_DDOT":0},{"OBJECT_NAME":"NOAA 17 DEB","OBJECT_ID":"2002-032W","EPOCH":"2026-03-09T23:34:50.358720","MEAN_MOTION":15.06684432,"ECCENTRICITY":0.0012716,"INCLINATION":98.7039,"RA_OF_ASC_NODE":76.0065,"ARG_OF_PERICENTER":104.6864,"MEAN_ANOMALY":255.577,"EPHEMERIS_TYPE":0,"CLASSIFICATION_TYPE":"U","NORAD_CAT_ID":48181,"ELEMENT_SET_NO":999,"REV_AT_EPOCH":26088,"BSTAR":0.0078736038,"MEAN_MOTION_DOT":0.00118919,"MEAN_MOTION_DDOT":0}]
